{"fetched_at":"2026-03-29T02:12:04Z","count":15717,"tles":[{"name":"DSX","line1":"1 44344U 19036F   26085.01885597 -.00000051  00000+0  00000+0 0  9997","line2":"2 44344  42.3213  21.0725 1969120 340.1487  13.1582  4.54376562112015","category":"Other"}]}